{"fetched_at":"2026-03-30T06:02:59Z","count":15439,"tles":[{"name":"STARLINK-30915","line1":"1 58380U 23178G   26087.74434445  .00005690  00000+0  20408-3 0  9999","line2":"2 58380  53.1611 182.8292 0001414  75.4673 284.6484 15.30201248134030","category":"Starlink"}]}