{
  "norad_id": 58380,
  "name": "STARLINK-30915",
  "history": [
    {
      "epoch": "2026-03-28T17:51:51.360480Z",
      "apogee_km": 476.1809548423935,
      "perigee_km": 474.24173139522554,
      "latitude_deg": -4.89697025647731e-05,
      "longitude_deg": 88.70476628341983,
      "height_km": 475.8661046290492,
      "semi_major_axis_km": 6853.34834311881,
      "eccentricity": 0.00014148,
      "inclination_deg": 53.1611,
      "raan_deg": 182.8292,
      "arg_perigee_deg": 75.4673,
      "mean_anomaly_deg": 284.6484,
      "mean_motion_rev_day": 15.30201248
    }
  ]
}